NORAD_CAT_ID,OBJECT_NAME,OBJECT_TYPE,EPOCH,MEAN_MOTION,ECCENTRICITY,INCLINATION,RA_OF_ASC_NODE,ARG_OF_PERICENTER,MEAN_ANOMALY,BSTAR,MEAN_MOTION_DOT,MEAN_MOTION_DDOT,TLE_LINE0,TLE_LINE1,TLE_LINE2,SEMIMAJOR_AXIS,PERIOD,APOGEE,PERIGEE,DECAYED
53841.0,STARLINK-4750,PAYLOAD,2023-07-13 16:41:35,15.08845252,8.33e-05,53.2171,328.7228,82.1003,278.0083,0.0005094,7.83e-05,0.0,0 STARLINK-4750,1 53841U 22114Z   23194.69555315  .00007830  00000-0  50940-3 0  9998,2 53841  53.2171 328.7228 0000833  82.1003 278.0083 15.08845252 45997,6917.864,95.437,540.306,539.153,0.0
53841.0,STARLINK-4750,PAYLOAD,2023-07-14 08:35:27,15.08843133,7.79e-05,53.2162,325.7489,100.8243,259.2837,0.00047909,7.346e-05,0.0,0 STARLINK-4750,1 53841U 22114Z   23195.35795428  .00007346  00000-0  47909-3 0  9996,2 53841  53.2162 325.7489 0000779 100.8243 259.2837 15.08843133 46092,6917.871,95.437,540.275,539.197,0.0
53841.0,STARLINK-4750,PAYLOAD,2023-07-14 14:56:59,15.08858459,9.6e-05,53.216,324.5601,91.8741,268.2361,0.001668,0.00026371,0.0,0 STARLINK-4750,1 53841U 22114Z   23195.62291265  .00026371  00000-0  16680-2 0  9996,2 53841  53.2160 324.5601 0000960  91.8741 268.2361 15.08858459 46131,6917.824,95.436,540.353,539.025,0.0
53841.0,STARLINK-4750,PAYLOAD,2023-07-15 02:04:41,15.08850104,0.0001073,53.2153,322.4768,104.5156,255.5955,0.00078525,0.00012235,0.0,0 STARLINK-4750,1 53841U 22114Z   23196.08659208  .00012235  00000-0  78525-3 0  9993,2 53841  53.2153 322.4768 0001073 104.5156 255.5955 15.08850104 46207,6917.85,95.437,540.457,538.972,0.0
53841.0,STARLINK-4750,PAYLOAD,2023-07-15 11:37:00,15.0884237,0.0001484,53.2172,320.6907,118.0234,242.0908,0.00025064,3.703e-05,0.0,0 STARLINK-4750,1 53841U 22114Z   23196.48403324  .00003703  00000-0  25064-3 0  9993,2 53841  53.2172 320.6907 0001484 118.0234 242.0908 15.08842370 46267,6917.873,95.437,540.765,538.712,0.0
53841.0,STARLINK-4750,PAYLOAD,2023-07-16 08:17:01,15.08839076,0.0001748,53.2178,316.8283,109.0765,251.0417,0.00011611,1.56e-05,0.0,0 STARLINK-4750,1 53841U 22114Z   23197.34515703  .00001560  00000-0  11611-3 0  9996,2 53841  53.2178 316.8283 0001748 109.0765 251.0417 15.08839076 46397,6917.883,95.438,540.957,538.539,0.0
53841.0,STARLINK-4750,PAYLOAD,2023-07-17 14:29:20,15.08851743,0.0001279,53.2177,311.1815,96.6922,263.4216,0.00034621,5.228e-05,0.0,0 STARLINK-4750,1 53841U 22114Z   23198.60371501  .00005228  00000-0  34621-3 0  9993,2 53841  53.2177 311.1815 0001279  96.6922 263.4216 15.08851743 46580,6917.844,95.437,540.594,538.825,0.0
53841.0,STARLINK-4750,PAYLOAD,2023-07-17 19:15:29,15.08862047,0.0001263,53.2175,310.2881,95.0339,265.0797,0.00051451,7.915e-05,0.0,0 STARLINK-4750,1 53841U 22114Z   23198.80243046  .00007915  00000-0  51451-3 0  9992,2 53841  53.2175 310.2881 0001263  95.0339 265.0797 15.08862047 46614,6917.813,95.436,540.552,538.804,0.0
53841.0,STARLINK-4750,PAYLOAD,2023-07-18 11:09:21,15.08844568,0.000112,53.2184,307.3129,100.582,259.5299,0.00010928,1.452e-05,0.0,0 STARLINK-4750,1 53841U 22114Z   23199.46483423  .00001452  00000-0  10928-3 0  9994,2 53841  53.2184 307.3129 0001120 100.5820 259.5299 15.08844568 46719,6917.866,95.437,540.506,538.957,0.0
53841.0,STARLINK-4750,PAYLOAD,2023-07-18 19:06:16,15.08854438,0.0001136,53.2184,305.8249,107.4509,252.6607,0.00030101,4.508e-05,0.0,0 STARLINK-4750,1 53841U 22114Z   23199.79602943  .00004508  00000-0  30101-3 0  9990,2 53841  53.2184 305.8249 0001136 107.4509 252.6607 15.08854438 46761,6917.836,95.437,540.487,538.915,0.0
53841.0,STARLINK-4750,PAYLOAD,2023-07-19 07:49:22,15.08818436,0.0001072,53.2174,303.4484,118.4462,241.6638,-3.2179e-05,-8e-06,0.0,0 STARLINK-4750,1 53841U 22114Z   23200.32595918 -.00000800  00000-0 -32179-4 0  9996,2 53841  53.2174 303.4484 0001072 118.4462 241.6638 15.08818436 46843,6917.946,95.439,540.553,539.07,0.0
53841.0,STARLINK-4750,PAYLOAD,2023-07-19 17:21:42,15.08824869,8.8e-05,53.2172,301.6641,115.4178,244.6906,0.00078197,0.00012174,0.0,0 STARLINK-4750,1 53841U 22114Z   23200.72340560  .00012174  00000-0  78197-3 0  9995,2 53841  53.2172 301.6641 0000880 115.4178 244.6906 15.08824869 46908,6917.927,95.439,540.4,539.183,0.0
53841.0,STARLINK-4750,PAYLOAD,2023-07-20 15:37:05,15.08859873,6.61e-05,53.2163,297.5016,99.9306,260.176,0.0011174,0.0001755,0.0,0 STARLINK-4750,1 53841U 22114Z   23201.65076267  .00017550  00000-0  11174-2 0  9992,2 53841  53.2163 297.5016 0000661  99.9306 260.1760 15.08859873 47043,6917.82,95.436,540.142,539.227,0.0
53841.0,STARLINK-4750,PAYLOAD,2023-07-21 05:55:34,15.08857146,9.17e-05,53.2163,294.8266,80.8194,279.2902,0.00074241,0.00011553,0.0,0 STARLINK-4750,1 53841U 22114Z   23202.24692284  .00011553  00000-0  74241-3 0  9993,2 53841  53.2163 294.8266 0000917  80.8194 279.2902 15.08857146 47138,6917.828,95.436,540.327,539.059,0.0
53841.0,STARLINK-4750,PAYLOAD,2023-07-24 05:27:55,15.08840236,9.26e-05,53.2168,281.4411,78.8899,281.2198,4.3524e-05,4.05e-06,0.0,0 STARLINK-4750,1 53841U 22114Z   23205.22772293  .00000405  00000-0  43524-4 0  9998,2 53841  53.2168 281.4411 0000926  78.8899 281.2198 15.08840236 48128,6917.88,95.438,540.385,539.104,0.0
53841.0,STARLINK-4750,PAYLOAD,2023-07-25 10:04:51,15.08837902,9.26e-05,53.2159,276.0891,83.5342,276.5755,-1.7936e-05,-5.73e-06,0.0,0 STARLINK-4750,1 53841U 22114Z   23206.42004418 -.00000573  00000-0 -17936-4 0  9994,2 53841  53.2159 276.0891 0000926  83.5342 276.5755 15.08837902 48308,6917.887,95.438,540.392,539.111,0.0
53841.0,STARLINK-4750,PAYLOAD,2023-07-26 13:06:25,15.08843889,0.0001367,53.2153,271.0377,54.8519,305.2601,6.986e-05,8.24e-06,0.0,0 STARLINK-4750,1 53841U 22114Z   23207.54612367  .00000824  00000-0  69860-4 0  9996,2 53841  53.2153 271.0377 0001367  54.8519 305.2601 15.08843889 48472,6917.869,95.437,540.679,538.788,0.0
53841.0,STARLINK-4750,PAYLOAD,2023-07-26 21:03:20,15.08840094,9.44e-05,53.2156,269.5493,70.2649,289.8445,0.00018832,2.711e-05,0.0,0 STARLINK-4750,1 53841U 22114Z   23207.87732513  .00002711  00000-0  18832-3 0  9997,2 53841  53.2156 269.5493 0000944  70.2649 289.8445 15.08840094 48526,6917.88,95.438,540.398,539.092,0.0
53841.0,STARLINK-4750,PAYLOAD,2023-07-27 05:00:16,15.08839205,9.42e-05,53.2158,268.062,70.7544,289.355,0.00013573,1.873e-05,0.0,0 STARLINK-4750,1 53841U 22114Z   23208.20852534  .00001873  00000-0  13573-3 0  9996,2 53841  53.2158 268.0620 0000942  70.7544 289.3550 15.08839205 48570,6917.883,95.438,540.399,539.096,0.0
53841.0,STARLINK-4750,PAYLOAD,2023-07-27 16:07:57,15.08850415,8.82e-05,53.2157,265.9802,75.5366,284.5724,0.00015952,2.253e-05,0.0,0 STARLINK-4750,1 53841U 22114Z   23208.67219760  .00002253  00000-0  15952-3 0  9991,2 53841  53.2157 265.9802 0000882  75.5366 284.5724 15.08850415 48100,6917.849,95.437,540.324,539.103,0.0
53841.0,STARLINK-4750,PAYLOAD,2023-07-28 03:15:40,15.08826806,8.06e-05,53.2155,263.8993,70.3592,289.7487,-9.4009e-05,-1.783e-05,0.0,0 STARLINK-4750,1 53841U 22114Z   23209.13589096 -.00001783  00000-0 -94009-4 0  9995,2 53841  53.2155 263.8993 0000806  70.3592 289.7487 15.08826806 48173,6917.921,95.438,540.343,539.228,0.0
53841.0,STARLINK-4750,PAYLOAD,2023-07-28 08:01:50,15.08830911,0.0001054,53.2152,263.0073,80.2497,279.8614,-0.0001172,-2.152e-05,0.0,0 STARLINK-4750,1 53841U 22114Z   23209.33460986 -.00002152  00000-0 -11720-3 0  9992,2 53841  53.2152 263.0073 0001054  80.2497 279.8614 15.08830911 48748,6917.908,95.438,540.502,539.044,0.0
53841.0,STARLINK-4750,PAYLOAD,2023-07-28 15:58:46,15.08833868,0.0001155,53.215,261.5201,76.2473,283.8648,-4.0499e-05,-9.32e-06,0.0,0 STARLINK-4750,1 53841U 22114Z   23209.66581115 -.00000932  00000-0 -40499-4 0  9996,2 53841  53.2150 261.5201 0001155  76.2473 283.8648 15.08833868 48255,6917.899,95.438,540.563,538.965,0.0
53841.0,STARLINK-4750,PAYLOAD,2023-07-29 09:28:06,15.08732533,0.0002288,53.2155,258.2493,86.4183,273.7071,0.0035704,0.00056827,0.0,0 STARLINK-4750,1 53841U 22114Z   23210.39451808  .00056827  00000-0  35704-2 0  9996,2 53841  53.2155 258.2493 0002288  86.4183 273.7071 15.08732533 48362,6918.209,95.444,541.657,538.491,0.0
53841.0,STARLINK-4750,PAYLOAD,2023-07-29 15:49:33,15.08839148,0.0001295,53.215,257.0594,90.1649,269.9491,0.00070014,0.00010872,0.0,0 STARLINK-4750,1 53841U 22114Z   23210.65941616  .00010872  00000-0  70014-3 0  9990,2 53841  53.2150 257.0594 0001295  90.1649 269.9491 15.08839148 48400,6917.883,95.438,540.644,538.852,0.0
53841.0,STARLINK-4750,PAYLOAD,2023-07-30 09:18:47,15.08840984,9.44e-05,53.2145,253.7884,77.3356,282.7742,0.00022867,3.353e-05,0.0,0 STARLINK-4750,1 53841U 22114Z   23211.38805438  .00003353  00000-0  22867-3 0  9991,2 53841  53.2145 253.7884 0000944  77.3356 282.7742 15.08840984 48515,6917.877,95.437,540.395,539.089,0.0
53841.0,STARLINK-4750,PAYLOAD,2023-07-31 12:20:20,15.08854842,0.0001078,53.215,248.7332,79.5776,280.5338,0.0003277,4.933e-05,0.0,0 STARLINK-4750,1 53841U 22114Z   23212.51412709  .00004933  00000-0  32770-3 0  9991,2 53841  53.2150 248.7332 0001078  79.5776 280.5338 15.08854842 48685,6917.835,95.437,540.446,538.954,0.0
53841.0,STARLINK-4750,PAYLOAD,2023-07-31 23:28:02,15.08844691,0.0001084,53.2143,246.6512,81.4657,278.6458,8.305e-05,1.034e-05,0.0,0 STARLINK-4750,1 53841U 22114Z   23212.97780956  .00001034  00000-0  83050-4 0  9990,2 53841  53.2143 246.6512 0001084  81.4657 278.6458 15.08844691 48751,6917.866,95.437,540.481,538.981,0.0
53841.0,STARLINK-4750,PAYLOAD,2023-08-01 12:11:08,15.08838572,0.0001069,53.2146,244.2717,85.8729,274.2386,-3.5478e-06,-3.44e-06,0.0,0 STARLINK-4750,1 53841U 22114Z   23213.50773200 -.00000344  00000-0 -35478-5 0  9991,2 53841  53.2146 244.2717 0001069  85.8729 274.2386 15.08838572 48838,6917.885,95.438,540.489,539.01,0.0
53841.0,STARLINK-4750,PAYLOAD,2023-08-02 13:37:17,15.08843887,0.0001025,53.2159,239.5138,90.9496,269.1613,3.6137e-05,2.87e-06,0.0,0 STARLINK-4750,1 53841U 22114Z   23214.56756933  .00000287  00000-0  36137-4 0  9998,2 53841  53.2159 239.5138 0001025  90.9496 269.1613 15.08843887 48994,6917.869,95.437,540.443,539.024,0.0
